[{"OBJECT_NAME":"STARLINK-30603","OBJECT_ID":"2023-160F","EPOCH":"2026-03-09T02:03:07.299360","MEAN_MOTION":15.26740098,"ECCENTRICITY":8.567e-5,"INCLINATION":43.0002,"RA_OF_ASC_NODE":81.2749,"ARG_OF_PERICENTER":263.4844,"MEAN_ANOMALY":96.591,"EPHEMERIS_TYPE":0,"CLASSIFICATION_TYPE":"U","NORAD_CAT_ID":58080,"ELEMENT_SET_NO":999,"REV_AT_EPOCH":13285,"BSTAR":-0.00014195897,"MEAN_MOTION_DOT":-4.065e-5,"MEAN_MOTION_DDOT":0},{"OBJECT_NAME":"HERMES-4","OBJECT_ID":"2025-052BP","EPOCH":"2026-03-09T22:05:58.629408","MEAN_MOTION":15.26796135,"ECCENTRICITY":0.00026523,"INCLINATION":97.4,"RA_OF_ASC_NODE":323.461,"ARG_OF_PERICENTER":154.9526,"MEAN_ANOMALY":205.1842,"EPHEMERIS_TYPE":0,"CLASSIFICATION_TYPE":"U","NORAD_CAT_ID":63833,"ELEMENT_SET_NO":999,"REV_AT_EPOCH":5478,"BSTAR":0.00081237216,"MEAN_MOTION_DOT":0.00021364,"MEAN_MOTION_DDOT":0}]
